{
  "type": "FeatureCollection",
  "features": [
    {
      "type": "Feature",
      "properties": {
        "norad_id": 29770,
        "name": "FENGYUN 1C DEB",
        "group": "fengyun-1c-debris",
        "lat": 51.72878858032919,
        "lon": -96.80309791585543,
        "alt_km": 840.2604713439423,
        "timestamp": "2025-12-22T05:49:03.770640+00:00",
        "meta_object_name": "FENGYUN 1C DEB",
        "meta_object_id": "1999-025BL",
        "meta_epoch": "2025-12-21T03:59:29.157216",
        "meta_mean_motion": 14.20161559,
        "meta_eccentricity": 0.00635796,
        "meta_inclination": 98.846,
        "meta_ra_of_asc_node": 70.7367,
        "meta_arg_of_pericenter": 247.0612,
        "meta_mean_anomaly": 142.3685,
        "meta_ephemeris_type": 0,
        "meta_classification_type": "U",
        "meta_norad_cat_id": 29770,
        "meta_element_set_no": 999,
        "meta_rev_at_epoch": 97206,
        "meta_bstar": 0.00096616775,
        "meta_mean_motion_dot": 2.059e-05,
        "meta_mean_motion_ddot": 0,
        "tle_line1": "1 29770U 99025BL  25355.16630969  .00002059  00000+0  96617-3 0  9997",
        "tle_line2": "2 29770  98.8460  70.7367 0063579 247.0612 142.3685 14.20161559972061"
      },
      "geometry": {
        "type": "Point",
        "coordinates": [
          -96.80309791585543,
          51.72878858032919
        ]
      }
    },
    {
      "type": "Feature",
      "properties": {
        "norad_id": 29772,
        "name": "FENGYUN 1C DEB",
        "group": "fengyun-1c-debris",
        "lat": -7.743337238279901,
        "lon": 23.5550330008492,
        "alt_km": 860.7949657757854,
        "timestamp": "2025-12-22T05:49:03.770650+00:00",
        "meta_object_name": "FENGYUN 1C DEB",
        "meta_object_id": "1999-025BN",
        "meta_epoch": "2025-12-17T20:35:52.099296",
        "meta_mean_motion": 14.03229234,
        "meta_eccentricity": 0.01377936,
        "meta_inclination": 98.3866,
        "meta_ra_of_asc_node": 200.6611,
        "meta_arg_of_pericenter": 276.0163,
        "meta_mean_anomaly": 98.373,
        "meta_ephemeris_type": 0,
        "meta_classification_type": "U",
        "meta_norad_cat_id": 29772,
        "meta_element_set_no": 999,
        "meta_rev_at_epoch": 96327,
        "meta_bstar": 0.00087765197,
        "meta_mean_motion_dot": 1.448e-05,
        "meta_mean_motion_ddot": 0,
        "tle_line1": "1 29772U 99025BN  25351.85824189  .00001448  00000+0  87765-3 0  9995",
        "tle_line2": "2 29772  98.3866 200.6611 0137793 276.0163  98.3730 14.03229234963277"
      },
      "geometry": {
        "type": "Point",
        "coordinates": [
          23.5550330008492,
          -7.743337238279901
        ]
      }
    },
    {
      "type": "Feature",
      "properties": {
        "norad_id": 29773,
        "name": "FENGYUN 1C DEB",
        "group": "fengyun-1c-debris",
        "lat": -10.567738179346145,
        "lon": 151.80557129784546,
        "alt_km": 801.8564036368525,
        "timestamp": "2025-12-22T05:49:03.770660+00:00",
        "meta_object_name": "FENGYUN 1C DEB",
        "meta_object_id": "1999-025BP",
        "meta_epoch": "2025-12-21T09:58:17.827104",
        "meta_mean_motion": 14.27585323,
        "meta_eccentricity": 0.0046453,
        "meta_inclination": 98.9876,
        "meta_ra_of_asc_node": 149.2636,
        "meta_arg_of_pericenter": 265.2174,
        "meta_mean_anomaly": 156.2594,
        "meta_ephemeris_type": 0,
        "meta_classification_type": "U",
        "meta_norad_cat_id": 29773,
        "meta_element_set_no": 999,
        "meta_rev_at_epoch": 98321,
        "meta_bstar": 0.00030399235,
        "meta_mean_motion_dot": 7.09e-06,
        "meta_mean_motion_ddot": 0,
        "tle_line1": "1 29773U 99025BP  25355.41548411  .00000709  00000+0  30399-3 0  9993",
        "tle_line2": "2 29773  98.9876 149.2636 0046453 265.2174 156.2594 14.27585323983212"
      },
      "geometry": {
        "type": "Point",
        "coordinates": [
          151.80557129784546,
          -10.567738179346145
        ]
      }
    },
    {
      "type": "Feature",
      "properties": {
        "norad_id": 29774,
        "name": "FENGYUN 1C DEB",
        "group": "fengyun-1c-debris",
        "lat": 28.847440833664688,
        "lon": 121.90865000322448,
        "alt_km": 792.9330747862323,
        "timestamp": "2025-12-22T05:49:03.770671+00:00",
        "meta_object_name": "FENGYUN 1C DEB",
        "meta_object_id": "1999-025BQ",
        "meta_epoch": "2025-12-21T19:07:45.945120",
        "meta_mean_motion": 14.22739194,
        "meta_eccentricity": 0.0051327,
        "meta_inclination": 99.0776,
        "meta_ra_of_asc_node": 296.3977,
        "meta_arg_of_pericenter": 97.7785,
        "meta_mean_anomaly": 292.677,
        "meta_ephemeris_type": 0,
        "meta_classification_type": "U",
        "meta_norad_cat_id": 29774,
        "meta_element_set_no": 999,
        "meta_rev_at_epoch": 98204,
        "meta_bstar": 0.0001441,
        "meta_mean_motion_dot": 2.81e-06,
        "meta_mean_motion_ddot": 0,
        "tle_line1": "1 29774U 99025BQ  25355.79705955  .00000281  00000+0  14410-3 0  9994",
        "tle_line2": "2 29774  99.0776 296.3977 0051327  97.7785 292.6770 14.22739194982041"
      },
      "geometry": {
        "type": "Point",
        "coordinates": [
          121.90865000322448,
          28.847440833664688
        ]
      }
    },
    {
      "type": "Feature",
      "properties": {
        "norad_id": 29776,
        "name": "FENGYUN 1C DEB",
        "group": "fengyun-1c-debris",
        "lat": -64.41796000714092,
        "lon": -176.08985858663095,
        "alt_km": 857.5415189052701,
        "timestamp": "2025-12-22T05:49:03.770681+00:00",
        "meta_object_name": "FENGYUN 1C DEB",
        "meta_object_id": "1999-025BS",
        "meta_epoch": "2025-12-21T15:37:06.318912",
        "meta_mean_motion": 14.07780504,
        "meta_eccentricity": 0.0022951,
        "meta_inclination": 98.7702,
        "meta_ra_of_asc_node": 22.1474,
        "meta_arg_of_pericenter": 244.7417,
        "meta_mean_anomaly": 244.3119,
        "meta_ephemeris_type": 0,
        "meta_classification_type": "U",
        "meta_norad_cat_id": 29776,
        "meta_element_set_no": 999,
        "meta_rev_at_epoch": 97205,
        "meta_bstar": 8.2038e-05,
        "meta_mean_motion_dot": 9.6e-07,
        "meta_mean_motion_ddot": 0,
        "tle_line1": "1 29776U 99025BS  25355.65076758  .00000096  00000+0  82038-4 0  9999",
        "tle_line2": "2 29776  98.7702  22.1474 0022951 244.7417 244.3119 14.07780504972057"
      },
      "geometry": {
        "type": "Point",
        "coordinates": [
          -176.08985858663095,
          -64.41796000714092
        ]
      }
    },
    {
      "type": "Feature",
      "properties": {
        "norad_id": 29777,
        "name": "FENGYUN 1C DEB",
        "group": "fengyun-1c-debris",
        "lat": 62.843375580880625,
        "lon": -108.29298764296892,
        "alt_km": 889.5548120409212,
        "timestamp": "2025-12-22T05:49:03.770692+00:00",
        "meta_object_name": "FENGYUN 1C DEB",
        "meta_object_id": "1999-025BT",
        "meta_epoch": "2025-12-21T03:31:13.283328",
        "meta_mean_motion": 13.92107603,
        "meta_eccentricity": 0.00930492,
        "meta_inclination": 99.2823,
        "meta_ra_of_asc_node": 52.0193,
        "meta_arg_of_pericenter": 186.9813,
        "meta_mean_anomaly": 201.2435,
        "meta_ephemeris_type": 0,
        "meta_classification_type": "U",
        "meta_norad_cat_id": 29777,
        "meta_element_set_no": 999,
        "meta_rev_at_epoch": 96158,
        "meta_bstar": 8.1509029e-05,
        "meta_mean_motion_dot": 6.3e-07,
        "meta_mean_motion_ddot": 0,
        "tle_line1": "1 29777U 99025BT  25355.14668152  .00000063  00000+0  81509-4 0  9995",
        "tle_line2": "2 29777  99.2823  52.0193 0093049 186.9813 201.2435 13.92107603961586"
      },
      "geometry": {
        "type": "Point",
        "coordinates": [
          -108.29298764296892,
          62.843375580880625
        ]
      }
    },
    {
      "type": "Feature",
      "properties": {
        "norad_id": 29779,
        "name": "FENGYUN 1C DEB",
        "group": "fengyun-1c-debris",
        "lat": 79.82527547946897,
        "lon": -51.109589456590015,
        "alt_km": 811.9451537845425,
        "timestamp": "2025-12-22T05:49:03.770701+00:00",
        "meta_object_name": "FENGYUN 1C DEB",
        "meta_object_id": "1999-025BV",
        "meta_epoch": "2025-12-21T12:25:44.038848",
        "meta_mean_motion": 14.13450077,
        "meta_eccentricity": 0.0063888,
        "meta_inclination": 98.6768,
        "meta_ra_of_asc_node": 6.4914,
        "meta_arg_of_pericenter": 139.3372,
        "meta_mean_anomaly": 221.2597,
        "meta_ephemeris_type": 0,
        "meta_classification_type": "U",
        "meta_norad_cat_id": 29779,
        "meta_element_set_no": 999,
        "meta_rev_at_epoch": 97536,
        "meta_bstar": 0.00018827,
        "meta_mean_motion_dot": 3.19e-06,
        "meta_mean_motion_ddot": 0,
        "tle_line1": "1 29779U 99025BV  25355.51787082  .00000319  00000+0  18827-3 0  9998",
        "tle_line2": "2 29779  98.6768   6.4914 0063888 139.3372 221.2597 14.13450077975365"
      },
      "geometry": {
        "type": "Point",
        "coordinates": [
          -51.109589456590015,
          79.82527547946897
        ]
      }
    }
  ]
}